{"type": "FeatureCollection", "features": [ {"type": "Feature", "properties": {"norad_id": 37996, "name": "COSMOS 2251 DEB", "group": "cosmos-2251-debris", "lat": -44.564940090430305, "lon": 45.698397580989244, "alt_km": 870.9499037418091, "timestamp": "2025-12-09T05:43:21.124602+00:00", "meta": {"OBJECT_NAME": "COSMOS 2251 DEB", "OBJECT_ID": "1993-036BQX", "EPOCH": "2025-11-16T18:35:00.708864", "MEAN_MOTION": 14.09591608, "ECCENTRICITY": 0.02219827, "INCLINATION": 74.0658, "RA_OF_ASC_NODE": 248.8308, "ARG_OF_PERICENTER": 5.4709, "MEAN_ANOMALY": 354.8776, "EPHEMERIS_TYPE": 0, "CLASSIFICATION_TYPE": "U", "NORAD_CAT_ID": 37996, "ELEMENT_SET_NO": 999, "REV_AT_EPOCH": 55769, "BSTAR": 0.0096790999, "MEAN_MOTION_DOT": 0.00021331, "MEAN_MOTION_DDOT": 0}, "tle": {"line1": "1 37996U 93036BQX 25320.77431376  .00021331  00000+0  96791-2 0  9998", "line2": "2 37996  74.0658 248.8308 0221982   5.4709 354.8776 14.09591608557693"}}, "geometry": {"type": "Point", "coordinates": [45.698397580989244, -44.564940090430305]}}, {"type": "Feature", "properties": {"norad_id": 37998, "name": "COSMOS 2251 DEB", "group": "cosmos-2251-debris", "lat": 36.5209764482804, "lon": 49.395590193453714, "alt_km": 751.7235859572829, "timestamp": "2025-12-09T05:43:21.124613+00:00", "meta": {"OBJECT_NAME": "COSMOS 2251 DEB", "OBJECT_ID": "1993-036BQZ", "EPOCH": "2025-12-07T01:34:33.386016", "MEAN_MOTION": 14.45444842, "ECCENTRICITY": 0.00199405, "INCLINATION": 74.0387, "RA_OF_ASC_NODE": 245.6796, "ARG_OF_PERICENTER": 320.6712, "MEAN_ANOMALY": 39.2997, "EPHEMERIS_TYPE": 0, "CLASSIFICATION_TYPE": "U", "NORAD_CAT_ID": 37998, "ELEMENT_SET_NO": 999, "REV_AT_EPOCH": 64205, "BSTAR": 0.00093558552, "MEAN_MOTION_DOT": 3.277e-05, "MEAN_MOTION_DDOT": 0}, "tle": {"line1": "1 37998U 93036BQZ 25341.06566419  .00003277  00000+0  93559-3 0  9991", "line2": "2 37998  74.0387 245.6796 0019940 320.6712  39.2997 14.45444842642056"}}, "geometry": {"type": "Point", "coordinates": [49.395590193453714, 36.5209764482804]}}, {"type": "Feature", "properties": {"norad_id": 38001, "name": "COSMOS 2251 DEB", "group": "cosmos-2251-debris", "lat": 35.37866576181001, "lon": 150.98624645602035, "alt_km": 643.5185951818639, "timestamp": "2025-12-09T05:43:21.124624+00:00", "meta": {"OBJECT_NAME": "COSMOS 2251 DEB", "OBJECT_ID": "1993-036BRC", "EPOCH": "2025-12-07T21:46:57.258624", "MEAN_MOTION": 14.78989425, "ECCENTRICITY": 0.00653645, "INCLINATION": 74, "RA_OF_ASC_NODE": 141.8516, "ARG_OF_PERICENTER": 292.2113, "MEAN_ANOMALY": 221.278, "EPHEMERIS_TYPE": 0, "CLASSIFICATION_TYPE": "U", "NORAD_CAT_ID": 38001, "ELEMENT_SET_NO": 999, "REV_AT_EPOCH": 74636, "BSTAR": 0.0010003516, "MEAN_MOTION_DOT": 7.632e-05, "MEAN_MOTION_DDOT": 0}, "tle": {"line1": "1 38001U 93036BRC 25341.90760716  .00007632  00000+0  10004-2 0  9998", "line2": "2 38001  74.0000 141.8516 0065364 292.2113 221.2780 14.78989425746360"}}, "geometry": {"type": "Point", "coordinates": [150.98624645602035, 35.37866576181001]}}, {"type": "Feature", "properties": {"norad_id": 38006, "name": "COSMOS 2251 DEB", "group": "cosmos-2251-debris", "lat": -62.23311966229395, "lon": 11.245207757808009, "alt_km": 720.1304789067053, "timestamp": "2025-12-09T05:43:21.124634+00:00", "meta": {"OBJECT_NAME": "COSMOS 2251 DEB", "OBJECT_ID": "1993-036BRH", "EPOCH": "2025-12-04T21:24:00.571392", "MEAN_MOTION": 14.45613673, "ECCENTRICITY": 0.0074849, "INCLINATION": 73.8488, "RA_OF_ASC_NODE": 52.8364, "ARG_OF_PERICENTER": 2.834, "MEAN_ANOMALY": 357.3225, "EPHEMERIS_TYPE": 0, "CLASSIFICATION_TYPE": "U", "NORAD_CAT_ID": 38006, "ELEMENT_SET_NO": 999, "REV_AT_EPOCH": 62846, "BSTAR": 0.0044211, "MEAN_MOTION_DOT": 0.00016183, "MEAN_MOTION_DDOT": 0}, "tle": {"line1": "1 38006U 93036BRH 25338.89167328  .00016183  00000+0  44211-2 0  9995", "line2": "2 38006  73.8488  52.8364 0074849   2.8340 357.3225 14.45613673628467"}}, "geometry": {"type": "Point", "coordinates": [11.245207757808009, -62.23311966229395]}}, {"type": "Feature", "properties": {"norad_id": 38054, "name": "COSMOS 2251 DEB", "group": "cosmos-2251-debris", "lat": 26.03548721399438, "lon": -80.3966296384487, "alt_km": 1216.3896393986442, "timestamp": "2025-12-09T05:43:21.124645+00:00", "meta": {"OBJECT_NAME": "COSMOS 2251 DEB", "OBJECT_ID": "1993-036BRL", "EPOCH": "2025-12-06T19:35:06.065952", "MEAN_MOTION": 13.62293123, "ECCENTRICITY": 0.0360398, "INCLINATION": 73.9587, "RA_OF_ASC_NODE": 275.4844, "ARG_OF_PERICENTER": 254.7432, "MEAN_ANOMALY": 133.9151, "EPHEMERIS_TYPE": 0, "CLASSIFICATION_TYPE": "U", "NORAD_CAT_ID": 38054, "ELEMENT_SET_NO": 999, "REV_AT_EPOCH": 67099, "BSTAR": 0.0049752628, "MEAN_MOTION_DOT": 5.934e-05, "MEAN_MOTION_DDOT": 0}, "tle": {"line1": "1 38054U 93036BRL 25340.81604243  .00005934  00000+0  49753-2 0  9993", "line2": "2 38054  73.9587 275.4844 0360398 254.7432 133.9151 13.62293123670997"}}, "geometry": {"type": "Point", "coordinates": [-80.3966296384487, 26.03548721399438]}}, {"type": "Feature", "properties": {"norad_id": 38055, "name": "COSMOS 2251 DEB", "group": "cosmos-2251-debris", "lat": -45.01941561973602, "lon": -163.0440001738063, "alt_km": 605.1315687868528, "timestamp": "2025-12-09T05:43:21.124655+00:00", "meta": {"OBJECT_NAME": "COSMOS 2251 DEB", "OBJECT_ID": "1993-036BRM", "EPOCH": "2025-12-08T09:35:56.658912", "MEAN_MOTION": 14.76901883, "ECCENTRICITY": 0.00657195, "INCLINATION": 74.0086, "RA_OF_ASC_NODE": 215.2783, "ARG_OF_PERICENTER": 343.7571, "MEAN_ANOMALY": 193.0951, "EPHEMERIS_TYPE": 0, "CLASSIFICATION_TYPE": "U", "NORAD_CAT_ID": 38055, "ELEMENT_SET_NO": 999, "REV_AT_EPOCH": 60618, "BSTAR": 0.0010877136, "MEAN_MOTION_DOT": 7.901e-05, "MEAN_MOTION_DDOT": 0}, "tle": {"line1": "1 38055U 93036BRM 25342.39996133  .00007901  00000+0  10877-2 0  9992", "line2": "2 38055  74.0086 215.2783 0065719 343.7571 193.0951 14.76901883606180"}}, "geometry": {"type": "Point", "coordinates": [-163.0440001738063, -45.01941561973602]}}, {"type": "Feature", "properties": {"norad_id": 38060, "name": "COSMOS 2251 DEB", "group": "cosmos-2251-debris", "lat": -16.97557269583216, "lon": -62.98428475623107, "alt_km": 668.9894649453427, "timestamp": "2025-12-09T05:43:21.124666+00:00", "meta": {"OBJECT_NAME": "COSMOS 2251 DEB", "OBJECT_ID": "1993-036BRS", "EPOCH": "2025-12-08T15:02:26.401344", "MEAN_MOTION": 14.63819883, "ECCENTRICITY": 0.0057903, "INCLINATION": 74.0428, "RA_OF_ASC_NODE": 303.2001, "ARG_OF_PERICENTER": 50.388, "MEAN_ANOMALY": 310.2378, "EPHEMERIS_TYPE": 0, "CLASSIFICATION_TYPE": "U", "NORAD_CAT_ID": 38060, "ELEMENT_SET_NO": 999, "REV_AT_EPOCH": 71904, "BSTAR": 0.0010404, "MEAN_MOTION_DOT": 5.538e-05, "MEAN_MOTION_DDOT": 0}, "tle": {"line1": "1 38060U 93036BRS 25342.62669446  .00005538  00000+0  10404-2 0  9998", "line2": "2 38060  74.0428 303.2001 0057903  50.3880 310.2378 14.63819883719047"}}, "geometry": {"type": "Point", "coordinates": [-62.98428475623107, -16.97557269583216]}}, {"type": "Feature", "properties": {"norad_id": 38062, "name": "COSMOS 2251 DEB", "group": "cosmos-2251-debris", "lat": -69.90822240830609, "lon": -114.08322242018124, "alt_km": 597.5583936891762, "timestamp": "2025-12-09T05:43:21.124676+00:00", "meta": {"OBJECT_NAME": "COSMOS 2251 DEB", "OBJECT_ID": "1993-036BRU", "EPOCH": "2025-12-06T04:12:38.753856", "MEAN_MOTION": 14.94290132, "ECCENTRICITY": 0.00122346, "INCLINATION": 74.0094, "RA_OF_ASC_NODE": 303.7202, "ARG_OF_PERICENTER": 72.1633, "MEAN_ANOMALY": 298.7726, "EPHEMERIS_TYPE": 0, "CLASSIFICATION_TYPE": "U", "NORAD_CAT_ID": 38062, "ELEMENT_SET_NO": 999, "REV_AT_EPOCH": 62932, "BSTAR": 0.0035053507, "MEAN_MOTION_DOT": 0.00037877, "MEAN_MOTION_DDOT": 0}, "tle": {"line1": "1 38062U 93036BRU 25340.17544854  .00037877  00000+0  35054-2 0  9992", "line2": "2 38062  74.0094 303.7202 0012234  72.1633 298.7726 14.94290132629324"}}, "geometry": {"type": "Point", "coordinates": [-114.08322242018124, -69.90822240830609]}}, {"type": "Feature", "properties": {"norad_id": 38064, "name": "COSMOS 2251 DEB", "group": "cosmos-2251-debris", "lat": -33.00332091080914, "lon": 120.0597101508241, "alt_km": 702.0386062652124, "timestamp": "2025-12-09T05:43:21.124687+00:00", "meta": {"OBJECT_NAME": "COSMOS 2251 DEB", "OBJECT_ID": "1993-036BRW", "EPOCH": "2025-12-08T19:59:17.678400", "MEAN_MOTION": 14.56247306, "ECCENTRICITY": 0.0047528, "INCLINATION": 74.0223, "RA_OF_ASC_NODE": 131.5539, "ARG_OF_PERICENTER": 251.7836, "MEAN_ANOMALY": 107.8151, "EPHEMERIS_TYPE": 0, "CLASSIFICATION_TYPE": "U", "NORAD_CAT_ID": 38064, "ELEMENT_SET_NO": 999, "REV_AT_EPOCH": 71808, "BSTAR": 0.0016943, "MEAN_MOTION_DOT": 7.589e-05, "MEAN_MOTION_DDOT": 0}, "tle": {"line1": "1 38064U 93036BRW 25342.83284350  .00007589  00000+0  16943-2 0  9994", "line2": "2 38064  74.0223 131.5539 0047528 251.7836 107.8151 14.56247306718081"}}, "geometry": {"type": "Point", "coordinates": [120.0597101508241, -33.00332091080914]}}, {"type": "Feature", "properties": {"norad_id": 38067, "name": "COSMOS 2251 DEB", "group": "cosmos-2251-debris", "lat": -59.91170233248507, "lon": 130.86068712041074, "alt_km": 745.0496747008647, "timestamp": "2025-12-09T05:43:21.124697+00:00", "meta": {"OBJECT_NAME": "COSMOS 2251 DEB", "OBJECT_ID": "1993-036BRZ", "EPOCH": "2025-11-29T04:46:36.876288", "MEAN_MOTION": 14.61044936, "ECCENTRICITY": 0.00691529, "INCLINATION": 74.017, "RA_OF_ASC_NODE": 300.4181, "ARG_OF_PERICENTER": 91.9303, "MEAN_ANOMALY": 288.2542, "EPHEMERIS_TYPE": 0, "CLASSIFICATION_TYPE": "U", "NORAD_CAT_ID": 38067, "ELEMENT_SET_NO": 999, "REV_AT_EPOCH": 62358, "BSTAR": 0.00037425936, "MEAN_MOTION_DOT": 1.87e-05, "MEAN_MOTION_DDOT": 0}, "tle": {"line1": "1 38067U 93036BRZ 25333.19903792  .00001870  00000+0  37426-3 0  9991", "line2": "2 38067  74.0170 300.4181 0069152  91.9303 288.2542 14.61044936623583"}}, "geometry": {"type": "Point", "coordinates": [130.86068712041074, -59.91170233248507]}}]}